[{"OBJECT_NAME":"STARLINK-32593","OBJECT_ID":"2024-210R","EPOCH":"2026-03-09T06:53:38.337792","MEAN_MOTION":15.27595378,"ECCENTRICITY":0.00028414,"INCLINATION":43.0026,"RA_OF_ASC_NODE":182.5093,"ARG_OF_PERICENTER":295.6911,"MEAN_ANOMALY":64.3648,"EPHEMERIS_TYPE":0,"CLASSIFICATION_TYPE":"U","NORAD_CAT_ID":61974,"ELEMENT_SET_NO":999,"REV_AT_EPOCH":7481,"BSTAR":0.0014146192,"MEAN_MOTION_DOT":0.00038891,"MEAN_MOTION_DDOT":0},{"OBJECT_NAME":"OBJECT H","OBJECT_ID":"2025-155H","EPOCH":"2026-03-09T22:09:58.611456","MEAN_MOTION":15.27590961,"ECCENTRICITY":0.00081993,"INCLINATION":97.4482,"RA_OF_ASC_NODE":37.3122,"ARG_OF_PERICENTER":152.0629,"MEAN_ANOMALY":208.1051,"EPHEMERIS_TYPE":0,"CLASSIFICATION_TYPE":"U","NORAD_CAT_ID":64883,"ELEMENT_SET_NO":999,"REV_AT_EPOCH":6559,"BSTAR":0.00050403256,"MEAN_MOTION_DOT":0.00013547,"MEAN_MOTION_DDOT":0}]
